ORBCOMM FM33            
1 25983U 99065D   25354.61846223  .00000586  00000+0  22696-3 0  9993
2 25983  45.0264 192.2727 0007743 281.9118  78.0863 14.40544827362946
ORBCOMM FM36            
1 25984U 99065E   25355.17046516  .00000805  00000+0  30594-3 0  9993
2 25984  45.0394 284.4086 0001333 181.4148 178.6697 14.38731831361344
ORBCOMM FM35            
1 25985U 99065F   25354.52339921  .00000641  00000+0  25868-3 0  9993
2 25985  45.0402 294.0299 0004675 271.1163  88.9150 14.37635014361593
ORBCOMM FM34            
1 25986U 99065G   25355.18521152  .00000613  00000+0  24970-3 0  9998
2 25986  45.0395 291.3666 0003367 230.2090 129.8462 14.37586041361805
ORBCOMM FM38            
1 33060U 08031A   25351.76850136  .00001404  00000+0  20080-3 0  9997
2 33060  48.4372 159.8035 0004435 120.0486 240.0870 14.82282580941971
ORBCOMM FM41            
1 33061U 08031B   25355.16089933  .00001181  00000+0  17482-3 0  9999
2 33061  48.4427 152.0547 0003591 119.7086  50.9611 14.81847229941954
ORBCOMM FM29            
1 33062U 08031C   25354.71441281  .00001123  00000+0  16706-3 0  9992
2 33062  48.4378 161.7418 0005300 114.3510 357.3948 14.81992487941805
ORBCOMM FM39            
1 33063U 08031D   25354.91303293  .00000917  00000+0  14649-3 0  9999
2 33063  48.4389 187.1854 0006128  81.3101 278.8508 14.80431343941450
